GECAM-A                 
1 47234U 20094A   26058.13989985  .00002379  00000+0  17329-3 0  9993
2 47234  28.9961  20.3521 0010700 243.6219 116.3280 15.00334340285149
STARLINK-6362           
1 57350U 23099Y   26068.50905757 -.00002981  00000+0 -20567-3 0  9997
2 57350  43.0027 237.4225 0001940 274.0485  86.0135 15.02536260146236
